STARLINK-5343           
1 56514U 23065M   23234.16668981  .00208512  24391-4  60698-3 0  9999
2 56514  42.9946 194.4944 0010956 162.9530 256.6432 15.92072149 16239
STARLINK-5348           
1 56515U 23065N   23233.06508400  .00000315  00000+0  38373-4 0  9990
2 56515  43.0019 232.5718 0001148 265.6822  94.3889 15.02533199 15706
STARLINK-5342           
1 56516U 23065P   23233.40302192  .00000251  00000+0  33614-4 0  9991
2 56516  43.0012 230.8092 0001108 266.1110  93.9605 15.02535805 15750
STARLINK-5345           
1 56517U 23065Q   23234.05337482 -.00000869  00000+0 -49241-4 0  9994
2 56517  43.0022 227.0839 0001180 256.3817 103.6894 15.02531619 15853
STARLINK-5346           
1 56518U 23065R   23233.26118723 -.00000122  00000+0  60715-5 0  9993
2 56518  43.0017 231.4617 0001114 258.2876 101.7841 15.02536040 15735
STARLINK-6313           
1 56519U 23065S   23234.11541484 -.00000500  00000+0 -21949-4 0  9999
2 56519  43.0018 226.6904 0001051 274.8536  85.2187 15.02529494 15867
STARLINK-6344           
1 56520U 23065T   23234.12207580 -.00000525  00000+0 -23797-4 0  9998
2 56520  43.0016 226.7429 0000920 295.3870  64.6877 15.02528437 15866
STARLINK-6333           
1 56521U 23065U   23234.16857076 -.00000473  00000+0 -19928-4 0  9997
2 56521  43.0011 226.2314 0000822 264.5348  95.5400 15.02532683 15873
STARLINK-6327           
1 56522U 23065V   23234.05004455 -.00000794  00000+0 -43681-4 0  9990
2 56522  43.0023 227.0593 0001205 262.8593  97.2112 15.02532527 15858
STARLINK-6328           
1 56523U 23065W   23234.09654385 -.00000662  00000+0 -33942-4 0  9991
2 56523  43.0047 226.5521 0001516 285.7911  74.2764 15.02532102 15861
STARLINK-6323           
1 56524U 23065X   23234.17190043  .00000319  00000+0  38709-4 0  9990
2 56524  43.0012 226.2566 0000952 277.8475  82.2260 15.02529054 15873
STARLINK-6329           
1 56525U 23065Y   23234.15636106  .00000856  00000+0  78462-4 0  9990
2 56525  43.0013 226.1488 0001210 272.2089  87.8615 15.02534580 15870
STARLINK-6317           
1 56526U 23065Z   23234.09875871 -.00001223  00000+0 -75461-4 0  9995
2 56526  43.0005 226.5659 0001150 289.2854  70.7864 15.02529279 15862
STARLINK-6335           
1 56527U 23065AA  23233.35973138  .00000512  00000+0  52987-4 0  9995
2 56527  43.0021 230.4804 0000981 257.9343 102.1390 15.02528865 15755
STARLINK-6337           
1 56528U 23065AB  23234.15969101 -.00000510  00000+0 -22714-4 0  9995
2 56528  43.0031 226.1651 0001179 262.1474  97.9234 15.02532876 15870
STARLINK-6307           
1 56529U 23065AC  23233.91667824  .00030449  00000+0  22596-2 0  9994
2 56529  43.0003 215.1788 0001479 264.7926 283.3827 15.02531131 15975
STARLINK-6318           
1 56530U 23065AD  23234.16668981 -.00917355  00000+0 -25371-1 0  9994
2 56530  42.9971 203.7645 0001327 254.5909  34.1264 15.38935220 16125
STARLINK-6280           
1 56531U 23065AE  23233.91667824  .00030533  00000+0  22659-2 0  9991
2 56531  43.0004 215.1499 0001328 267.5876 292.6099 15.02528713 15972
STARLINK-6319           
1 56532U 23065AF  23233.58334491 -.00008984  00000+0 -61756-3 0  9995
2 56532  43.0003 217.1309 0001309 279.8668 204.0037 15.04489469 15928
STARLINK-6310           
1 56533U 23065AG  23233.91667824  .00032665  00000+0  24223-2 0  9990
2 56533  43.0001 215.0496 0001397 261.9445 340.3304 15.02529169 15979
STARLINK-6308           
1 56534U 23065AH  23233.58334491 -.00010611  00000+0 -77165-3 0  9998
2 56534  42.9993 217.0342 0000940 290.8393 234.0858 15.02534659 15924
STARLINK-6309           
1 56535U 23065AJ  23233.34072877  .00000442  00000+0  47822-4 0  9997
2 56535  43.0015 244.2198 0001142 275.0765  84.9947 15.02535599 15594
STARLINK-6312           
1 56536U 23065AK  23233.34183533  .00000702  00000+0  67035-4 0  9997
2 56536  43.0009 244.2296 0001069 269.8362  90.2358 15.02538181 15595
STARLINK-6311           
1 56537U 23065AL  23233.33740048  .00001259  00000+0  10822-3 0  9996
2 56537  43.0008 244.1959 0001101 274.3940  85.6776 15.02537451 15591
STARLINK-6314           
1 56538U 23065AM  23233.91667824  .00038710  00000+0  27238-2 0  9991
2 56538  43.0001 214.8048 0001293 255.3808  89.5231 15.04433894 15982
STARLINK-6135           
1 56539U 23065AN  23234.06532749  .00000950  00000+0  85377-4 0  9991
2 56539  43.0014 240.1963 0000982 268.3564  91.7166 15.02538027 15706
STARLINK-6136           
1 56540U 23065AP  23233.34516723  .00000461  00000+0  49218-4 0  9998
2 56540  43.0016 244.2540 0000912 266.0436  94.0302 15.02537122 15592
STARLINK-6249           
1 56541U 23065AQ  23233.39166719  .00000391  00000+0  43996-4 0  9999
2 56541  43.0012 243.7417 0001028 268.3888  91.6836 15.02538430 15601
STARLINK-6266           
1 56542U 23065AR  23234.06199730  .00000079  00000+0  20937-4 0  9997
2 56542  43.0018 240.1717 0001284 273.3405  86.7290 15.02533908 15702
STARLINK-6228           
1 56543U 23065AS  23234.04979032  .00000141  00000+0  25468-4 0  9991
2 56543  43.0005 240.0783 0000928 279.0685  81.0053 15.02529965 15701
STARLINK-6226           
1 56544U 23065AT  23234.12516495 -.00001170  00000+0 -71606-4 0  9991
2 56544  43.0023 239.7853 0001149 273.7528  86.3183 15.02518973 15718
STARLINK-6086           
1 56545U 23065AU  23233.38056782  .00000375  00000+0  42851-4 0  9991
2 56545  43.0017 243.6561 0001156 270.9008  89.1702 15.02536234 15608
STARLINK-6187           
1 56546U 23065AV  23234.11959219 -.00002443  00000+0 -16585-3 0  9995
2 56546  43.0017 239.7430 0001318 264.3985  95.6707 15.02533315 15717
STARLINK-6291           
1 56547U 23065AW  23234.17165024  .00000228  00000+0  31941-4 0  9996
2 56547  43.0021 239.2738 0001068 291.4431  68.6298 15.02527463 15721
STARLINK-6244           
1 56548U 23065AX  23234.11515454  .00000933  00000+0  84116-4 0  9992
2 56548  43.0023 239.7066 0001347 270.5044  89.5644 15.02534341 15710
STARLINK-6263           
1 56549U 23065AY  23233.43484986  .00001323  00000+0  11300-3 0  9990
2 56549  43.0014 243.2036 0001079 293.4008  66.6720 15.02534268 15612
STARLINK-6255           
1 56550U 23065AZ  23233.37723415  .00001286  00000+0  11025-3 0  9990
2 56550  43.0020 243.6326 0001086 279.8984  80.1735 15.02543189 15604
STARLINK-6199           
1 56551U 23065BA  23233.43039543  .00002834  00000+0  22484-3 0  9991
2 56551  43.0018 243.1691 0001073 282.2507  77.8215 15.02530982 15611
STARLINK-5802           
1 56552U 23065BB  23233.90240085 -.00000672  00000+0 -34660-4 0  9999
2 56552  43.0021 240.6911 0001449 234.9779 125.0927 15.02536839 15685
STARLINK-6074           
1 56553U 23065BC  23232.42990035  .00000238  00000+0  32701-4 0  9993
2 56553  43.0015 248.5618 0001011 285.4043  74.6688 15.02537473 15464
STARLINK-6295           
1 56554U 23065BD  23234.16276742 -.00000239  00000+0 -26400-5 0  9992
2 56554  43.0017 239.2041 0001083 269.9701  90.1017 15.02532599 15723
STARLINK-6252           
1 56555U 23065BE  23234.08519060  .00000225  00000+0  31719-4 0  9998
2 56555  43.0025 239.4800 0001240 283.0823  76.9881 15.02533546 15718
STARLINK-5302           
1 56556U 23065BF  23234.15499782  .00000413  00000+0  45595-4 0  9991
2 56556  42.9997 239.1443 0000464 285.9389  74.1402 15.02533907 15721
STARLINK-6265           
1 56557U 23065BG  23234.08185969 -.00000101  00000+0  75608-5 0  9997
2 56557  43.0021 239.4538 0001070 268.8363  91.2357 15.02532517 15710
STARLINK-6286           
1 56558U 23065BH  23234.07963704  .00000686  00000+0  65890-4 0  9996
2 56558  43.0027 239.4412 0001651 305.8490  54.2199 15.02536131 15715
STARLINK-30122          
1 56688U 23067A   23234.13325554  .00001351  00000+0  10954-3 0  9994
2 56688  43.0018 291.3740 0001633 278.3597  81.7061 15.04486049 14820
STARLINK-30129          
1 56689U 23067B   23233.28456608  .00002701  00000+0  15700-3 0  9999
2 56689  42.9986 296.1971 0000781 326.9265  33.1532 15.14322062 14691
STARLINK-30124          
1 56690U 23067C   23233.28110167  .00042399  00000+0  22688-2 0  9997
2 56690  42.9995 296.1704 0000772 282.0458  78.0302 15.14376414 14696
STARLINK-30087          
1 56691U 23067D   23233.07974672  .00003227  00000+0  18522-3 0  9994
2 56691  42.9998 298.0994 0000854 273.2378  86.8370 15.14316062 14657
STARLINK-30036          
1 56692U 23067E   23233.07627536  .00003780  00000+0  21483-3 0  9993
2 56692  43.0003 298.0739 0001173 284.3609  75.7108 15.14316933 14652
STARLINK-30067          
1 56693U 23067F   23233.33317029  .00003820  00000+0  21696-3 0  9997
2 56693  42.9994 296.5618 0000920 280.4694  79.6049 15.14323670 14696
STARLINK-30126          
1 56694U 23067G   23233.07280559  .00003688  00000+0  20989-3 0  9992
2 56694  42.9996 298.0490 0000982 293.1045  66.9698 15.14318697 14651
STARLINK-30121          
1 56695U 23067H   23233.83334491  .00001290  00000+0  10527-3 0  9996
2 56695  43.0006 292.9431 0001805 218.7080 351.4991 15.04464862 14788
STARLINK-30130          
1 56697U 23067K   23233.56230195  .00003731  00000+0  21215-3 0  9992
2 56697  43.0028 294.8414 0001242 266.1705  93.9000 15.14327290 14730
STARLINK-30068          
1 56698U 23067L   23234.13266191  .00002045  00000+0  12186-3 0  9996
2 56698  42.9979 280.9468 0001185 333.4423  26.6363 15.14318327 14949
STARLINK-30127          
1 56699U 23067M   23233.32623240  .00002054  00000+0  12234-3 0  9993
2 56699  43.0005 296.5129 0001017 288.7566  71.3170 15.14318370 14696
STARLINK-30053          
1 56700U 23067N   23233.32275903  .00000983  00000+0  64943-4 0  9999
2 56700  42.9993 296.4873 0001051 293.9519  66.1217 15.14314997 14697
STARLINK-30125          
1 56701U 23067P   23233.25332941  .00000337  00000+0  30315-4 0  9997
2 56701  43.0009 296.8262 0001077 290.1021  69.9709 15.14320891 14685
STARLINK-30117          
1 56702U 23067Q   23233.32391694  .00004289  00000+0  33941-3 0  9993
2 56702  42.9995 295.5951 0001449 257.0474 103.0207 15.01732516 14709
